HTV-X1                  
1 66174U 25241A   26093.82199054  .00008122  00000+0  26600-3 0  9995
2 66174  51.6360 311.9230 0007281 269.6353  90.3794 15.32523004 24797
SZ-21 MODULE            
1 66515U 25246C   26093.57082554  .00056445  00000+0  44364-3 0  9995
2 66515  41.4748  49.9717 0002970 226.3876 133.6720 15.70603524 21987
SHENZHOU-22             
1 66645U 25272A   26093.85394936  .00033937  00000+0  38035-3 0  9998
2 66645  41.4676  54.8968 0003800 118.7350 241.3871 15.61964693281808
SOYUZ-MS 28             
1 66664U 25275A   26093.87567842  .00012431  00000+0  23534-3 0  9996
2 66664  51.6327 307.8415 0006253 268.9169  91.1103 15.48754008560322
DUPLEX                  
1 66906U 98067XS  26093.87371084  .00042685  00000+0  56333-3 0  9992
2 66906  51.6281 303.3293 0003150 230.6102 129.4612 15.57944721 19053
ISS OBJECT XT           
1 66907U 98067XT  26093.79054114  .00346833  00000+0  17775-2 0  9994
2 66907  51.6221 296.7263 0007071 244.1010 115.9263 15.79721293 19136
ISS OBJECT XU           
1 66908U 98067XU  26093.78566026  .00356022  00000+0  17948-2 0  9997
2 66908  51.6220 296.6887 0007202 243.6126 116.4136 15.80057487 19139
SILVERSAT               
1 66909U 98067XV  26093.77994826  .00579654  00000+0  20456-2 0  9996
2 66909  51.6183 295.1303 0008837 251.8453 108.1590 15.87036353 19154
ISS OBJECT XW           
1 66910U 98067XW  26093.80402081  .00289411  00000+0  16307-2 0  9998
2 66910  51.6199 296.8087 0007277 239.9507 120.0772 15.77771409 19134
ISS OBJECT XX           
1 66911U 98067XX  26093.81691764  .01105203  59707-3  24502-2 0  9993
2 66911  51.6151 293.0793 0010965 258.1070 101.8709 15.97317952 19174
ISS OBJECT XY           
1 66912U 98067XY  26093.78423691  .00161885  00000+0  13386-2 0  9995
2 66912  51.6250 299.7150 0004900 237.6031 122.4492 15.69233885 19085
KNACKSAT-2              
1 67683U 98067XZ  26093.76128895  .00058417  00000+0  88442-3 0  9999
2 67683  51.6304 307.0797 0010476 278.6039  81.3765 15.54033651  8682
